STARLINK-30311          
1 57637U 23122F   26068.37559488  .00004007  00000+0  15892-3 0  9997
2 57637  43.0084  93.8771 0003979 292.6380  67.4050 15.26758155142163
FALCONSAT-10            
1 58291U 23174AM  26068.70247784  .00006748  00000+0  25969-3 0  9991
2 58291  97.3865 145.7938 0008932 169.5942 190.5483 15.26670596129582
