[{"OBJECT_NAME":"STARLINK-30311","OBJECT_ID":"2023-122F","EPOCH":"2026-03-09T09:00:51.397632","MEAN_MOTION":15.26758155,"ECCENTRICITY":0.00039793,"INCLINATION":43.0084,"RA_OF_ASC_NODE":93.8771,"ARG_OF_PERICENTER":292.638,"MEAN_ANOMALY":67.405,"EPHEMERIS_TYPE":0,"CLASSIFICATION_TYPE":"U","NORAD_CAT_ID":57637,"ELEMENT_SET_NO":999,"REV_AT_EPOCH":14216,"BSTAR":0.00015892002,"MEAN_MOTION_DOT":4.007e-5,"MEAN_MOTION_DDOT":0},{"OBJECT_NAME":"FALCONSAT-10","OBJECT_ID":"2023-174AM","EPOCH":"2026-03-09T16:51:34.085376","MEAN_MOTION":15.26670596,"ECCENTRICITY":0.00089318,"INCLINATION":97.3865,"RA_OF_ASC_NODE":145.7938,"ARG_OF_PERICENTER":169.5942,"MEAN_ANOMALY":190.5483,"EPHEMERIS_TYPE":0,"CLASSIFICATION_TYPE":"U","NORAD_CAT_ID":58291,"ELEMENT_SET_NO":999,"REV_AT_EPOCH":12958,"BSTAR":0.00025968794,"MEAN_MOTION_DOT":6.748e-5,"MEAN_MOTION_DDOT":0}]
